{
  "norad_id": 48658,
  "name": "STARLINK-2647",
  "history": [
    {
      "epoch": "2026-03-28T20:53:46.509216Z",
      "apogee_km": 476.05921947082425,
      "perigee_km": 474.4880065536863,
      "latitude_deg": 6.991203539518207e-06,
      "longitude_deg": -114.97909770495569,
      "height_km": 476.13244605803357,
      "semi_major_axis_km": 6853.410613012255,
      "eccentricity": 0.00011463,
      "inclination_deg": 53.1617,
      "raan_deg": 24.7496,
      "arg_perigee_deg": 87.1116,
      "mean_anomaly_deg": 273.0016,
      "mean_motion_rev_day": 15.30180393
    },
    {
      "epoch": "2026-03-29T04:44:02.848416Z",
      "apogee_km": 476.14258640371645,
      "perigee_km": 474.3387773978402,
      "latitude_deg": 4.12811221627517e-05,
      "longitude_deg": 125.61345792642788,
      "height_km": 476.1619149846445,
      "semi_major_axis_km": 6853.377681900778,
      "eccentricity": 0.0001316,
      "inclination_deg": 53.1609,
      "raan_deg": 23.2321,
      "arg_perigee_deg": 91.4698,
      "mean_anomaly_deg": 268.6454,
      "mean_motion_rev_day": 15.30191422
    },
    {
      "epoch": "2026-03-30T04:14:50.948448Z",
      "apogee_km": 476.1807918980503,
      "perigee_km": 474.2618515679642,
      "latitude_deg": 1.4592112795769623e-06,
      "longitude_deg": 127.39675264286002,
      "height_km": 476.16544290878204,
      "semi_major_axis_km": 6853.358321733007,
      "eccentricity": 0.00014,
      "inclination_deg": 53.1606,
      "raan_deg": 18.6815,
      "arg_perigee_deg": 92.7576,
      "mean_anomaly_deg": 267.3585,
      "mean_motion_rev_day": 15.30197906
    },
    {
      "epoch": "2026-03-30T12:05:06.550656Z",
      "apogee_km": 476.1114335588136,
      "perigee_km": 474.2522652213511,
      "latitude_deg": 1.4547883043839334e-05,
      "longitude_deg": 7.9930720140747145,
      "height_km": 476.1431729975449,
      "semi_major_axis_km": 6853.318849390082,
      "eccentricity": 0.00013564,
      "inclination_deg": 53.1605,
      "raan_deg": 17.1647,
      "arg_perigee_deg": 93.9051,
      "mean_anomaly_deg": 266.2105,
      "mean_motion_rev_day": 15.30211126
    },
    {
      "epoch": "2026-03-30T19:55:22.027584Z",
      "apogee_km": 476.0731916401601,
      "perigee_km": 474.21581528709066,
      "latitude_deg": -4.777373591017999e-05,
      "longitude_deg": -111.41044136868723,
      "height_km": 476.11247770427156,
      "semi_major_axis_km": 6853.281503463625,
      "eccentricity": 0.00013551,
      "inclination_deg": 53.1602,
      "raan_deg": 15.6476,
      "arg_perigee_deg": 94.3212,
      "mean_anomaly_deg": 265.7943,
      "mean_motion_rev_day": 15.30223634
    },
    {
      "epoch": "2026-03-31T19:26:09.400992Z",
      "apogee_km": 476.4168487379702,
      "perigee_km": 474.0126929367598,
      "latitude_deg": 2.6689030029212916e-05,
      "longitude_deg": -109.62082489856088,
      "height_km": 476.2869749748799,
      "semi_major_axis_km": 6853.351770837365,
      "eccentricity": 0.0001754,
      "inclination_deg": 53.1628,
      "raan_deg": 11.1002,
      "arg_perigee_deg": 98.3463,
      "mean_anomaly_deg": 261.7737,
      "mean_motion_rev_day": 15.302001
    }
  ]
}